[{"OBJECT_NAME":"TRANSPORTER-11 OBJECT A","OBJECT_ID":"2024-149A","EPOCH":"2026-03-09T17:54:54.302112","MEAN_MOTION":15.31141332,"ECCENTRICITY":0.00031096,"INCLINATION":97.378,"RA_OF_ASC_NODE":149.0949,"ARG_OF_PERICENTER":191.001,"MEAN_ANOMALY":169.1164,"EPHEMERIS_TYPE":0,"CLASSIFICATION_TYPE":"U","NORAD_CAT_ID":60468,"ELEMENT_SET_NO":999,"REV_AT_EPOCH":8683,"BSTAR":0.00036053677,"MEAN_MOTION_DOT":0.00010774,"MEAN_MOTION_DDOT":0},{"OBJECT_NAME":"STARLINK-32721","OBJECT_ID":"2024-251G","EPOCH":"2026-03-09T23:21:34.614720","MEAN_MOTION":15.30215784,"ECCENTRICITY":7.991e-5,"INCLINATION":53.159,"RA_OF_ASC_NODE":333.8584,"ARG_OF_PERICENTER":93.8735,"MEAN_ANOMALY":266.2357,"EPHEMERIS_TYPE":0,"CLASSIFICATION_TYPE":"U","NORAD_CAT_ID":62438,"ELEMENT_SET_NO":999,"REV_AT_EPOCH":6793,"BSTAR":0.0011678628,"MEAN_MOTION_DOT":0.00034407,"MEAN_MOTION_DDOT":0}]
